start=new Date('2021-10-17T00:00:00.000Z').valueOf();
sats=[{"NORAD_CAT_ID":"46146","REV_AT_EPOCH":"6410","MEAN_MOTION_DDOT":"0.0000000000000","FILE":"3166610","SEMIMAJOR_AXIS":"6925.382","TIME_SYSTEM":"UTC","RCS_SIZE":"LARGE","EPHEMERIS_TYPE":"0","INCLINATION":"53.0536","RA_OF_ASC_NODE":"323.3872","OBJECT_NAME":"STARLINK-1608","PERIOD":"95.593","DECAY_DATE":null,"BSTAR":"0.00013623000000","OBJECT_ID":"2020-057AF","CENTER_NAME":"EARTH","SITE":"AFETR","PERIAPSIS":"546.422","MEAN_MOTION_DOT":"0.00001748","MEAN_MOTION":"15.06389067","TLE_LINE1":"1 46146U 20057AF  21289.32634234  .00001748  00000-0  13623-3 0  9992","COUNTRY_CODE":"US","ARG_OF_PERICENTER":"94.0762","MEAN_ELEMENT_THEORY":"SGP4","APOAPSIS":"548.073","OBJECT_TYPE":"PAYLOAD","MEAN_ANOMALY":"266.0363","REF_FRAME":"TEME","LAUNCH_DATE":"2020-08-18","GP_ID":"187357316","TLE_LINE2":"2 46146  53.0536 323.3872 0001192  94.0762 266.0363 15.06389067 64106","EPOCH":"2021-10-16T07:49:55.978176","ECCENTRICITY":"0.00011920","CLASSIFICATION_TYPE":"U","ELEMENT_SET_NO":"999"},{"DECAY_DATE":null,"RA_OF_ASC_NODE":"323.1688","INCLINATION":"53.0531","OBJECT_NAME":"STARLINK-1611","PERIOD":"95.592","OBJECT_ID":"2020-057AG","CENTER_NAME":"EARTH","SITE":"AFETR","BSTAR":"-0.00012477000000","FILE":"3166610","SEMIMAJOR_AXIS":"6925.365","REV_AT_EPOCH":"6536","NORAD_CAT_ID":"46147","MEAN_MOTION_DDOT":"0.0000000000000","EPHEMERIS_TYPE":"0","RCS_SIZE":"LARGE","TIME_SYSTEM":"UTC","LAUNCH_DATE":"2020-08-18","REF_FRAME":"TEME","OBJECT_TYPE":"PAYLOAD","MEAN_ANOMALY":"289.2183","CLASSIFICATION_TYPE":"U","ELEMENT_SET_NO":"999","EPOCH":"2021-10-16T08:58:57.127584","GP_ID":"187358066","TLE_LINE2":"2 46147  53.0531 323.1688 0001463  70.8964 289.2183 15.06394531 65360","ECCENTRICITY":"0.00014630","MEAN_MOTION_DOT":"-0.00002139","PERIAPSIS":"546.217","ARG_OF_PERICENTER":"70.8964","MEAN_ELEMENT_THEORY":"SGP4","APOAPSIS":"548.244","MEAN_MOTION":"15.06394531","TLE_LINE1":"1 46147U 20057AG  21289.37427231 -.00002139  00000-0 -12477-3 0  9998","COUNTRY_CODE":"US"},{"TLE_LINE1":"1 46148U 20057AH  21289.31344076  .00002014  00000-0  15406-3 0  9993","COUNTRY_CODE":"US","MEAN_MOTION":"15.06392135","APOAPSIS":"548.199","ARG_OF_PERICENTER":"80.3433","MEAN_ELEMENT_THEORY":"SGP4","PERIAPSIS":"546.276","MEAN_MOTION_DOT":"0.00002014","ECCENTRICITY":"0.00013880","EPOCH":"2021-10-16T07:31:21.281664","TLE_LINE2":"2 46148  53.0534 303.4302 0001388  80.3433 279.7713 15.06392135 64372","GP_ID":"187356814","ELEMENT_SET_NO":"999","CLASSIFICATION_TYPE":"U","REF_FRAME":"TEME","MEAN_ANOMALY":"279.7713","OBJECT_TYPE":"PAYLOAD","LAUNCH_DATE":"2020-08-18","TIME_SYSTEM":"UTC","EPHEMERIS_TYPE":"0","RCS_SIZE":"LARGE","MEAN_MOTION_DDOT":"0.0000000000000","REV_AT_EPOCH":"6437","NORAD_CAT_ID":"46148","SEMIMAJOR_AXIS":"6925.373","FILE":"3166610","BSTAR":"0.00015406000000","CENTER_NAME":"EARTH","SITE":"AFETR","OBJECT_ID":"2020-057AH","PERIOD":"95.593","OBJECT_NAME":"STARLINK-1616","RA_OF_ASC_NODE":"303.4302","INCLINATION":"53.0534","DECAY_DATE":null},{"CLASSIFICATION_TYPE":"U","ELEMENT_SET_NO":"999","GP_ID":"187356565","TLE_LINE2":"2 46149  53.0546 303.3738 0001350  75.3635 284.7504 15.06391346 65654","EPOCH":"2021-10-16T07:52:35.009472","ECCENTRICITY":"0.00013500","LAUNCH_DATE":"2020-08-18","OBJECT_TYPE":"PAYLOAD","MEAN_ANOMALY":"284.7504","REF_FRAME":"TEME","MEAN_ELEMENT_THEORY":"SGP4","ARG_OF_PERICENTER":"75.3635","APOAPSIS":"548.175","MEAN_MOTION":"15.06391346","TLE_LINE1":"1 46149U 20057AJ  21289.32818298  .00001282  00000-0  10494-3 0  9995","COUNTRY_CODE":"US","MEAN_MOTION_DOT":"0.00001282","PERIAPSIS":"546.305","OBJECT_ID":"2020-057AJ","SITE":"AFETR","CENTER_NAME":"EARTH","BSTAR":"0.00010494000000","DECAY_DATE":null,"INCLINATION":"53.0546","RA_OF_ASC_NODE":"303.3738","OBJECT_NAME":"STARLINK-1620","PERIOD":"95.593","RCS_SIZE":"LARGE","EPHEMERIS_TYPE":"0","TIME_SYSTEM":"UTC","FILE":"3166610","SEMIMAJOR_AXIS":"6925.375","NORAD_CAT_ID":"46149","REV_AT_EPOCH":"6565","MEAN_MOTION_DDOT":"0.0000000000000"},{"MEAN_MOTION_DOT":"0.00001355","PERIAPSIS":"546.307","MEAN_ELEMENT_THEORY":"SGP4","ARG_OF_PERICENTER":"87.4380","APOAPSIS":"548.194","MEAN_MOTION":"15.06387935","TLE_LINE1":"1 46150U 20057AK  21289.32267076  .00001355  00000-0  10988-3 0  9998","COUNTRY_CODE":"US","LAUNCH_DATE":"2020-08-18","MEAN_ANOMALY":"272.6765","OBJECT_TYPE":"PAYLOAD","REF_FRAME":"TEME","CLASSIFICATION_TYPE":"U","ELEMENT_SET_NO":"999","GP_ID":"187357816","TLE_LINE2":"2 46150  53.0550 323.3885 0001363  87.4380 272.6765 15.06387935 64104","EPOCH":"2021-10-16T07:44:38.753664","ECCENTRICITY":"0.00013630","FILE":"3166610","SEMIMAJOR_AXIS":"6925.386","NORAD_CAT_ID":"46150","REV_AT_EPOCH":"6410","MEAN_MOTION_DDOT":"0.0000000000000","EPHEMERIS_TYPE":"0","RCS_SIZE":"LARGE","TIME_SYSTEM":"UTC","DECAY_DATE":null,"INCLINATION":"53.0550","RA_OF_ASC_NODE":"323.3885","PERIOD":"95.593","OBJECT_NAME":"STARLINK-1629","OBJECT_ID":"2020-057AK","SITE":"AFETR","CENTER_NAME":"EARTH","BSTAR":"0.00010988000000"},{"ECCENTRICITY":"0.00013370","EPOCH":"2021-10-16T07:10:08.490432","TLE_LINE2":"2 46151  53.0539 303.5090 0001337  80.5503 279.5637 15.06388231 64375","GP_ID":"187357567","ELEMENT_SET_NO":"999","CLASSIFICATION_TYPE":"U","REF_FRAME":"TEME","MEAN_ANOMALY":"279.5637","OBJECT_TYPE":"PAYLOAD","LAUNCH_DATE":"2020-08-18","COUNTRY_CODE":"US","TLE_LINE1":"1 46151U 20057AL  21289.29870938  .00001152  00000-0  96267-4 0  9992","MEAN_MOTION":"15.06388231","APOAPSIS":"548.176","MEAN_ELEMENT_THEORY":"SGP4","ARG_OF_PERICENTER":"80.5503","PERIAPSIS":"546.324","MEAN_MOTION_DOT":"0.00001152","BSTAR":"0.00009626700000","CENTER_NAME":"EARTH","SITE":"AFETR","OBJECT_ID":"2020-057AL","PERIOD":"95.593","OBJECT_NAME":"STARLINK-1631","RA_OF_ASC_NODE":"303.5090","INCLINATION":"53.0539","DECAY_DATE":null,"TIME_SYSTEM":"UTC","RCS_SIZE":"LARGE","EPHEMERIS_TYPE":"0","MEAN_MOTION_DDOT":"0.0000000000000","REV_AT_EPOCH":"6437","NORAD_CAT_ID":"46151","SEMIMAJOR_AXIS":"6925.385","FILE":"3166610"},{"SITE":"AFETR","CENTER_NAME":"EARTH","OBJECT_ID":"2020-057AM","BSTAR":"0.00011370000000","DECAY_DATE":null,"PERIOD":"95.593","OBJECT_NAME":"STARLINK-1634","RA_OF_ASC_NODE":"323.2782","INCLINATION":"53.0550","RCS_SIZE":"LARGE","EPHEMERIS_TYPE":"0","TIME_SYSTEM":"UTC","SEMIMAJOR_AXIS":"6925.388","FILE":"3166610","MEAN_MOTION_DDOT":"0.0000000000000","REV_AT_EPOCH":"6410","NORAD_CAT_ID":"46152","ELEMENT_SET_NO":"999","CLASSIFICATION_TYPE":"U","ECCENTRICITY":"0.00014100","EPOCH":"2021-10-16T08:21:47.072736","GP_ID":"187356315","TLE_LINE2":"2 46152  53.0550 323.2782 0001410  87.6334 272.4817 15.06387218 64105","LAUNCH_DATE":"2020-08-18","REF_FRAME":"TEME","MEAN_ANOMALY":"272.4817","OBJECT_TYPE":"PAYLOAD","APOAPSIS":"548.229","MEAN_ELEMENT_THEORY":"SGP4","ARG_OF_PERICENTER":"87.6334","TLE_LINE1":"1 46152U 20057AM  21289.34846149  .00001412  00000-0  11370-3 0  9996","COUNTRY_CODE":"US","MEAN_MOTION":"15.06387218","MEAN_MOTION_DOT":"0.00001412","PERIAPSIS":"546.276"},{"INCLINATION":"53.0546","RA_OF_ASC_NODE":"303.4220","PERIOD":"95.595","OBJECT_NAME":"STARLINK-1636","DECAY_DATE":null,"BSTAR":"-0.00015215000000","OBJECT_ID":"2020-057AN","CENTER_NAME":"EARTH","SITE":"AFETR","NORAD_CAT_ID":"46153","REV_AT_EPOCH":"6437","MEAN_MOTION_DDOT":"0.0000000000000","FILE":"3166610","SEMIMAJOR_AXIS":"6925.466","TIME_SYSTEM":"UTC","EPHEMERIS_TYPE":"0","RCS_SIZE":"LARGE","MEAN_ANOMALY":"287.5355","OBJECT_TYPE":"PAYLOAD","REF_FRAME":"TEME","LAUNCH_DATE":"2020-08-18","GP_ID":"187357065","TLE_LINE2":"2 46153  53.0546 303.4220 0001526  72.5801 287.5355 15.06361764 64379","EPOCH":"2021-10-16T07:36:42.922944","ECCENTRICITY":"0.00015260","ELEMENT_SET_NO":"999","CLASSIFICATION_TYPE":"U","PERIAPSIS":"546.274","MEAN_MOTION_DOT":"-0.00002545","MEAN_MOTION":"15.06361764","COUNTRY_CODE":"US","TLE_LINE1":"1 46153U 20057AN  21289.31716346 -.00002545  00000-0 -15215-3 0  9991","MEAN_ELEMENT_THEORY":"SGP4","ARG_OF_PERICENTER":"72.5801","APOAPSIS":"548.388"},{"MEAN_ANOMALY":"274.4028","OBJECT_TYPE":"PAYLOAD","REF_FRAME":"TEME","LAUNCH_DATE":"2020-08-18","TLE_LINE2":"2 46154  53.0551 313.3755 0001283  85.7107 274.4028 15.06386245 64243","GP_ID":"187357317","EPOCH":"2021-10-16T07:51:17.013600","ECCENTRICITY":"0.00012830","ELEMENT_SET_NO":"999","CLASSIFICATION_TYPE":"U","PERIAPSIS":"546.367","MEAN_MOTION_DOT":"0.00001835","MEAN_MOTION":"15.06386245","TLE_LINE1":"1 46154U 20057AP  21289.32728025  .00001835  00000-0  14212-3 0  9995","COUNTRY_CODE":"US","ARG_OF_PERICENTER":"85.7107","MEAN_ELEMENT_THEORY":"SGP4","APOAPSIS":"548.144","INCLINATION":"53.0551","RA_OF_ASC_NODE":"313.3755","PERIOD":"95.593","OBJECT_NAME":"STARLINK-1642","DECAY_DATE":null,"BSTAR":"0.00014212000000","OBJECT_ID":"2020-057AP","CENTER_NAME":"EARTH","SITE":"AFETR","NORAD_CAT_ID":"46154","REV_AT_EPOCH":"6424","MEAN_MOTION_DDOT":"0.0000000000000","FILE":"3166610","SEMIMAJOR_AXIS":"6925.391","TIME_SYSTEM":"UTC","EPHEMERIS_TYPE":"0","RCS_SIZE":"LARGE"},{"BSTAR":"0.00001332600000","OBJECT_ID":"2020-057AQ","SITE":"AFETR","CENTER_NAME":"EARTH","INCLINATION":"53.0532","RA_OF_ASC_NODE":"283.2662","OBJECT_NAME":"STARLINK-1667","PERIOD":"95.593","DECAY_DATE":null,"TIME_SYSTEM":"UTC","EPHEMERIS_TYPE":"0","RCS_SIZE":"LARGE","NORAD_CAT_ID":"46155","REV_AT_EPOCH":"6590","MEAN_MOTION_DDOT":"0.0000000000000","FILE":"3166610","SEMIMAJOR_AXIS":"6925.371","GP_ID":"187358067","TLE_LINE2":"2 46155  53.0532 283.2662 0001722  72.6145 287.5032 15.06392623 65901","EPOCH":"2021-10-16T08:27:05.804928","ECCENTRICITY":"0.00017220","CLASSIFICATION_TYPE":"U","ELEMENT_SET_NO":"999","OBJECT_TYPE":"PAYLOAD","MEAN_ANOMALY":"287.5032","REF_FRAME":"TEME","LAUNCH_DATE":"2020-08-18","MEAN_MOTION":"15.06392623","COUNTRY_CODE":"US","TLE_LINE1":"1 46155U 20057AQ  21289.35215052 -.00000083  00000-0  13326-4 0  9991","ARG_OF_PERICENTER":"72.6145","MEAN_ELEMENT_THEORY":"SGP4","APOAPSIS":"548.429","PERIAPSIS":"546.044","MEAN_MOTION_DOT":"-0.00000083"}];
